0 FENGYUN 1C DEB
1 30899U 99025AYM 13283.01123038  .00002590  00000-0  15877-2 0  8107
2 30899 099.1762 347.2597 0045247 224.8115 256.7976 14.06178040339735
0 FENGYUN 1C DEB
1 30899U 99025AYM 13286.41482760  .00002876  00000-0  17594-2 0  8121
2 30899 099.1767 350.7082 0045268 215.5664 206.5110 14.06193529340214
0 FENGYUN 1C DEB
1 30899U 99025AYM 13288.06228192  .00003988  00000-0  24279-2 0  8135
2 30899 099.1765 352.3772 0045318 210.9932 266.4419 14.06205846340447
0 FENGYUN 1C DEB
1 30899U 99025AYM 13289.40251278  .00003261  00000-0  19901-2 0  8146
2 30899 099.1763 353.7352 0045345 207.3362 211.1025 14.06214907340630
0 FENGYUN 1C DEB
1 30899U 99025AYM 13291.05043064  .00003023  00000-0  18464-2 0  8152
2 30899 099.1755 355.4050 0045374 202.7799 273.4887 14.06225172340868
0 FENGYUN 1C DEB
1 30899U 99025AYM 13293.04314939  .00003130  00000-0  19103-2 0  8166
2 30899 099.1747 357.4241 0045444 197.2935 281.4470 14.06235167341145
0 FENGYUN 1C DEB
1 30899U 99025AYM 13295.03540661  .00003397  00000-0  20707-2 0  8178
2 30899 099.1744 359.4422 0045564 191.9618 286.9949 14.06246043341424
